[{"OBJECT_NAME":"STARLINK-32907","OBJECT_ID":"2025-037U","EPOCH":"2026-03-09T23:27:38.313792","MEAN_MOTION":14.98328846,"ECCENTRICITY":0.00025483,"INCLINATION":70.0033,"RA_OF_ASC_NODE":353.7855,"ARG_OF_PERICENTER":260.1337,"MEAN_ANOMALY":99.9535,"EPHEMERIS_TYPE":0,"CLASSIFICATION_TYPE":"U","NORAD_CAT_ID":63095,"ELEMENT_SET_NO":999,"REV_AT_EPOCH":5859,"BSTAR":0.00026248806,"MEAN_MOTION_DOT":3.04e-5,"MEAN_MOTION_DDOT":0},{"OBJECT_NAME":"QPS-SAR-10 (WADATSUMI-I)","OBJECT_ID":"2025-104A","EPOCH":"2026-03-09T22:18:19.817856","MEAN_MOTION":15.00816738,"ECCENTRICITY":0.00107055,"INCLINATION":42.0035,"RA_OF_ASC_NODE":106.051,"ARG_OF_PERICENTER":46.9104,"MEAN_ANOMALY":313.2617,"EPHEMERIS_TYPE":0,"CLASSIFICATION_TYPE":"U","NORAD_CAT_ID":64055,"ELEMENT_SET_NO":999,"REV_AT_EPOCH":4451,"BSTAR":0.00049051731,"MEAN_MOTION_DOT":6.161e-5,"MEAN_MOTION_DDOT":0}]
